{
  "type": "FeatureCollection",
  "features": [
    {
      "type": "Feature",
      "properties": {
        "norad_id": 35667,
        "name": "COSMOS 2251 DEB",
        "group": "cosmos-2251-debris",
        "lat": 61.2511876230101,
        "lon": -177.43307873132503,
        "alt_km": 699.1834616990172,
        "timestamp": "2025-12-06T22:38:43.125498+00:00",
        "meta_object_name": "COSMOS 2251 DEB",
        "meta_object_id": "1993-036APJ",
        "meta_epoch": "2025-12-03T05:32:00.225024",
        "meta_mean_motion": 14.59863315,
        "meta_eccentricity": 0.0020461,
        "meta_inclination": 74.0542,
        "meta_ra_of_asc_node": 158.2289,
        "meta_arg_of_pericenter": 220.1527,
        "meta_mean_anomaly": 139.8128,
        "meta_ephemeris_type": 0,
        "meta_classification_type": "U",
        "meta_norad_cat_id": 35667,
        "meta_element_set_no": 999,
        "meta_rev_at_epoch": 70664,
        "meta_bstar": 0.0013542,
        "meta_mean_motion_dot": 6.475e-05,
        "meta_mean_motion_ddot": 0,
        "tle_line1": "1 35667U 93036APJ 25337.23055816  .00006475  00000+0  13542-2 0  9996",
        "tle_line2": "2 35667  74.0542 158.2289 0020461 220.1527 139.8128 14.59863315706648"
      },
      "geometry": {
        "type": "Point",
        "coordinates": [
          -177.43307873132503,
          61.2511876230101
        ]
      }
    },
    {
      "type": "Feature",
      "properties": {
        "norad_id": 35668,
        "name": "COSMOS 2251 DEB",
        "group": "cosmos-2251-debris",
        "lat": 72.41236536248417,
        "lon": -12.839240579163528,
        "alt_km": 701.492841960946,
        "timestamp": "2025-12-06T22:38:43.125508+00:00",
        "meta_object_name": "COSMOS 2251 DEB",
        "meta_object_id": "1993-036APK",
        "meta_epoch": "2025-12-06T09:05:00.792096",
        "meta_mean_motion": 14.63958506,
        "meta_eccentricity": 0.0083061,
        "meta_inclination": 74.0458,
        "meta_ra_of_asc_node": 232.7313,
        "meta_arg_of_pericenter": 339.3101,
        "meta_mean_anomaly": 20.4709,
        "meta_ephemeris_type": 0,
        "meta_classification_type": "U",
        "meta_norad_cat_id": 35668,
        "meta_element_set_no": 999,
        "meta_rev_at_epoch": 87554,
        "meta_bstar": 0.00057387566,
        "meta_mean_motion_dot": 3.128e-05,
        "meta_mean_motion_ddot": 0,
        "tle_line1": "1 35668U 93036APK 25340.37848139  .00003128  00000+0  57388-3 0  9993",
        "tle_line2": "2 35668  74.0458 232.7313 0083061 339.3101  20.4709 14.63958506875545"
      },
      "geometry": {
        "type": "Point",
        "coordinates": [
          -12.839240579163528,
          72.41236536248417
        ]
      }
    },
    {
      "type": "Feature",
      "properties": {
        "norad_id": 35669,
        "name": "COSMOS 2251 DEB",
        "group": "cosmos-2251-debris",
        "lat": 38.724517820357114,
        "lon": -24.630701218606823,
        "alt_km": 1266.8019561844567,
        "timestamp": "2025-12-06T22:38:43.125519+00:00",
        "meta_object_name": "COSMOS 2251 DEB",
        "meta_object_id": "1993-036APL",
        "meta_epoch": "2025-12-03T21:23:42.149184",
        "meta_mean_motion": 13.57134195,
        "meta_eccentricity": 0.0387239,
        "meta_inclination": 73.852,
        "meta_ra_of_asc_node": 173.7821,
        "meta_arg_of_pericenter": 287.3475,
        "meta_mean_anomaly": 68.5633,
        "meta_ephemeris_type": 0,
        "meta_classification_type": "U",
        "meta_norad_cat_id": 35669,
        "meta_element_set_no": 999,
        "meta_rev_at_epoch": 60669,
        "meta_bstar": 0.0017031,
        "meta_mean_motion_dot": 1.95e-05,
        "meta_mean_motion_ddot": 0,
        "tle_line1": "1 35669U 93036APL 25337.89146006  .00001950  00000+0  17031-2 0  9992",
        "tle_line2": "2 35669  73.8520 173.7821 0387239 287.3475  68.5633 13.57134195606690"
      },
      "geometry": {
        "type": "Point",
        "coordinates": [
          -24.630701218606823,
          38.724517820357114
        ]
      }
    },
    {
      "type": "Feature",
      "properties": {
        "norad_id": 35670,
        "name": "COSMOS 2251 DEB",
        "group": "cosmos-2251-debris",
        "lat": 54.25883788705691,
        "lon": -127.4115740546528,
        "alt_km": 577.9230087072865,
        "timestamp": "2025-12-06T22:38:43.125529+00:00",
        "meta_object_name": "COSMOS 2251 DEB",
        "meta_object_id": "1993-036APM",
        "meta_epoch": "2025-12-03T00:51:50.152032",
        "meta_mean_motion": 14.93482129,
        "meta_eccentricity": 0.00369334,
        "meta_inclination": 73.8945,
        "meta_ra_of_asc_node": 84.1864,
        "meta_arg_of_pericenter": 48.0359,
        "meta_mean_anomaly": 312.396,
        "meta_ephemeris_type": 0,
        "meta_classification_type": "U",
        "meta_norad_cat_id": 35670,
        "meta_element_set_no": 999,
        "meta_rev_at_epoch": 87582,
        "meta_bstar": 0.001906882,
        "meta_mean_motion_dot": 0.00020358,
        "meta_mean_motion_ddot": 0,
        "tle_line1": "1 35670U 93036APM 25337.03599713  .00020358  00000+0  19069-2 0  9993",
        "tle_line2": "2 35670  73.8945  84.1864 0036933  48.0359 312.3960 14.93482129875820"
      },
      "geometry": {
        "type": "Point",
        "coordinates": [
          -127.4115740546528,
          54.25883788705691
        ]
      }
    },
    {
      "type": "Feature",
      "properties": {
        "norad_id": 35671,
        "name": "COSMOS 2251 DEB",
        "group": "cosmos-2251-debris",
        "lat": 63.73072819213517,
        "lon": 125.68055037748846,
        "alt_km": 752.8506576049576,
        "timestamp": "2025-12-06T22:38:43.125539+00:00",
        "meta_object_name": "COSMOS 2251 DEB",
        "meta_object_id": "1993-036APN",
        "meta_epoch": "2025-12-06T14:08:17.871072",
        "meta_mean_motion": 14.48331693,
        "meta_eccentricity": 0.00415098,
        "meta_inclination": 74.0176,
        "meta_ra_of_asc_node": 90.8468,
        "meta_arg_of_pericenter": 265.9421,
        "meta_mean_anomaly": 115.4447,
        "meta_ephemeris_type": 0,
        "meta_classification_type": "U",
        "meta_norad_cat_id": 35671,
        "meta_element_set_no": 999,
        "meta_rev_at_epoch": 86674,
        "meta_bstar": 0.00044501062,
        "meta_mean_motion_dot": 1.654e-05,
        "meta_mean_motion_ddot": 0,
        "tle_line1": "1 35671U 93036APN 25340.58909573  .00001654  00000+0  44501-3 0  9995",
        "tle_line2": "2 35671  74.0176  90.8468 0041509 265.9421 115.4447 14.48331693866741"
      },
      "geometry": {
        "type": "Point",
        "coordinates": [
          125.68055037748846,
          63.73072819213517
        ]
      }
    },
    {
      "type": "Feature",
      "properties": {
        "norad_id": 35674,
        "name": "COSMOS 2251 DEB",
        "group": "cosmos-2251-debris",
        "lat": -4.046253739581624,
        "lon": 148.61186688025893,
        "alt_km": 782.6765382737303,
        "timestamp": "2025-12-06T22:38:43.125550+00:00",
        "meta_object_name": "COSMOS 2251 DEB",
        "meta_object_id": "1993-036APR",
        "meta_epoch": "2025-12-06T05:17:28.209696",
        "meta_mean_motion": 14.54037935,
        "meta_eccentricity": 0.0095963,
        "meta_inclination": 74.0595,
        "meta_ra_of_asc_node": 328.8178,
        "meta_arg_of_pericenter": 15.1029,
        "meta_mean_anomaly": 345.2962,
        "meta_ephemeris_type": 0,
        "meta_classification_type": "U",
        "meta_norad_cat_id": 35674,
        "meta_element_set_no": 999,
        "meta_rev_at_epoch": 86016,
        "meta_bstar": 0.0028900264,
        "meta_mean_motion_dot": 0.00012958,
        "meta_mean_motion_ddot": 0,
        "tle_line1": "1 35674U 93036APR 25340.22046539  .00012958  00000+0  28900-2 0  9996",
        "tle_line2": "2 35674  74.0595 328.8178 0095963  15.1029 345.2962 14.54037935860167"
      },
      "geometry": {
        "type": "Point",
        "coordinates": [
          148.61186688025893,
          -4.046253739581624
        ]
      }
    },
    {
      "type": "Feature",
      "properties": {
        "norad_id": 35701,
        "name": "COSMOS 2251 DEB",
        "group": "cosmos-2251-debris",
        "lat": -35.552931797626194,
        "lon": 143.95794796185623,
        "alt_km": 838.8946646061167,
        "timestamp": "2025-12-06T22:38:43.125560+00:00",
        "meta_object_name": "COSMOS 2251 DEB",
        "meta_object_id": "1993-036APW",
        "meta_epoch": "2025-12-06T05:57:57.623904",
        "meta_mean_motion": 13.80843435,
        "meta_eccentricity": 0.02897209,
        "meta_inclination": 74.0028,
        "meta_ra_of_asc_node": 313.2955,
        "meta_arg_of_pericenter": 164.0681,
        "meta_mean_anomaly": 196.98,
        "meta_ephemeris_type": 0,
        "meta_classification_type": "U",
        "meta_norad_cat_id": 35701,
        "meta_element_set_no": 999,
        "meta_rev_at_epoch": 62069,
        "meta_bstar": 0.0021223911,
        "meta_mean_motion_dot": 3.05e-05,
        "meta_mean_motion_ddot": 0,
        "tle_line1": "1 35701U 93036APW 25340.24858361  .00003050  00000+0  21224-2 0  9998",
        "tle_line2": "2 35701  74.0028 313.2955 0289720 164.0681 196.9800 13.80843435620696"
      },
      "geometry": {
        "type": "Point",
        "coordinates": [
          143.95794796185623,
          -35.552931797626194
        ]
      }
    }
  ]
}